OBJECT_NAME,OBJECT_ID,EPOCH,MEAN_MOTION,ECCENTRICITY,INCLINATION,RA_OF_ASC_NODE,ARG_OF_PERICENTER,MEAN_ANOMALY,EPHEMERIS_TYPE,CLASSIFICATION_TYPE,NORAD_CAT_ID,ELEMENT_SET_NO,REV_AT_EPOCH,BSTAR,MEAN_MOTION_DOT,MEAN_MOTION_DDOT
TJS-6,2021-010A,2025-03-10T19:00:41.353920,1.00274899,.000139,0.2405,93.1719,184.5815,354.6047,0,U,47613,999,1516,0,.26E-6,0
SBIRS GEO-5 (USA 315),2021-042A,2025-03-10T19:58:32.926656,1.00272429,.0002516,5.7401,326.4249,8.8994,153.9153,0,U,48618,999,1411,0,.101E-5,0
SXM-8,2021-049A,2025-03-09T13:00:14.809248,1.00318157,.0007231,0.0195,63.1358,312.8896,261.3728,0,U,48838,999,1393,0,-.228E-5,0
TIANLIAN 1-05,2021-063A,2025-03-10T20:20:38.676768,1.00272013,.000378,0.3994,79.8786,232.9007,177.8868,0,U,49011,999,1343,0,.91E-6,0
EUTELSAT QUANTUM,2021-069B,2025-03-10T20:12:38.729952,1.00273821,.0002385,0.0501,297.1243,42.8923,179.5777,0,U,49056,999,1328,0,.108E-5,0
ZHONGXING-2E,2021-071A,2025-03-10T19:56:26.634048,1.00269593,.0000429,0.0200,90.0368,324.8554,150.9836,0,U,49062,999,1339,0,-.309E-5,0
TJS-7,2021-077A,2025-03-10T14:15:34.121952,1.00270471,.0000926,0.1637,90.6751,175.3836,16.8093,0,U,49115,999,491,0,-.141E-5,0
CHINASAT 9B,2021-080A,2025-03-10T20:21:30.246336,1.00266718,.0002266,0.0247,154.4944,168.8641,252.1893,0,U,49125,999,1300,0,-.33E-5,0
SES-17,2021-095A,2025-03-10T13:29:38.451840,1.00269211,.0001085,0.0139,92.9036,245.3763,325.4796,0,U,49332,999,1320,0,-.289E-5,0
SYRACUSE 4A,2021-095B,2025-03-10T06:22:40.929600,1.00269587,.0001574,0.0270,149.0487,198.2266,322.0888,0,U,49333,999,1330,0,.117E-5,0
ZHONGXING-1D,2021-114A,2025-03-10T20:29:45.671712,1.00272296,.0002505,0.0394,311.2828,257.6367,37.4121,0,U,49505,999,1218,0,-.354E-5,0
STPSAT-6,2021-118A,2025-03-10T14:12:03.940128,1.00269623,.0002447,0.0217,109.4186,215.5134,304.8806,0,U,49817,999,1191,0,-.62E-6,0
EXPRESS AMU-7,2021-123A,2025-03-10T20:40:38.625024,1.00271502,.0000142,0.0153,232.2063,64.0868,327.6132,0,U,50001,999,1189,0,-.26E-5,0
EXPRESS AMU-3,2021-123B,2025-03-10T05:55:15.390624,1.00271884,.0000242,0.0219,232.5319,350.1158,137.3160,0,U,50002,999,238,0,-.339E-5,0
TIANLIAN 2-02,2021-124A,2025-03-10T18:58:26.238144,1.00272043,.0004012,0.0263,79.7635,232.6724,311.8088,0,U,50005,999,1196,0,-.32E-6,0
TURKSAT 5B,2021-126A,2025-03-10T20:44:38.613984,1.00271629,.0005506,0.0782,326.5852,3.4841,191.8336,0,U,50212,999,1165,0,.128E-5,0
INMARSAT 6-F1,2021-128A,2025-03-10T16:38:38.601312,1.00269060,.0000355,0.0224,159.0963,178.3625,164.5700,0,U,50319,999,1161,0,-.189E-5,0
SHIYAN 12 01 (SY-12 01),2021-129A,2025-03-10T19:11:38.620320,1.00071009,.0004283,2.4768,86.5775,268.1016,160.5302,0,U,50321,999,1185,0,.72E-6,0
SHIYAN 12 02 (SY-12 02),2021-129B,2025-03-10T20:21:15.232608,1.00510575,.0002538,2.4763,86.5856,9.4026,118.5363,0,U,50322,999,1185,0,-.352E-5,0
TJS-9,2021-135A,2025-03-10T18:48:55.745856,1.00269373,.0003275,0.0593,107.7065,57.0094,63.3995,0,U,50574,999,1178,0,-.317E-5,0
USA 324,2022-006A,2025-03-06T11:20:53.356128,1.00484607,.0000996,0.3787,84.1655,342.9429,66.0272,0,U,51280,999,271,0,-.9E-6,0
USA 325,2022-006B,2025-03-05T21:16:54.259968,1.00139091,.0000262,0.4231,87.4691,352.1854,74.5958,0,U,51281,999,1143,0,.139E-5,0
ZHONGXING-6D,2022-038A,2025-03-10T04:27:49.988736,1.00271352,.0002015,0.0283,193.4936,138.9309,27.5647,0,U,52255,999,1077,0,-.372E-5,0
CMS-02 (GSAT 24),2022-067A,2025-03-10T20:36:38.655936,1.00270355,.0003494,0.0540,267.9971,11.1728,281.7410,0,U,52903,999,996,0,-.182E-5,0
MEASAT 3D,2022-067B,2025-03-10T19:56:38.634144,1.00272577,.0003163,0.0515,324.9540,7.1080,227.3183,0,U,52904,999,1000,0,-.259E-5,0
SES-22,2022-071A,2025-03-10T15:47:08.852640,1.00271148,.0001269,0.0175,123.3411,212.2604,290.7234,0,U,52933,999,287,0,.87E-6,0
WFOV (USA 332),2022-073A,2025-03-10T21:20:38.761728,1.00269196,.0002102,2.5168,84.5830,210.7847,312.8360,0,U,52940,999,971,0,-.379E-5,0
