TJS-6                   
1 47613U 21010A   25069.79214530  .00000026  00000+0  00000+0 0  9994
2 47613   0.2405  93.1719 0001390 184.5815 354.6047  1.00274899 15161
SBIRS GEO-5 (USA 315)   
1 48618U 21042A   25069.83232554  .00000101  00000+0  00000+0 0  9990
2 48618   5.7401 326.4249 0002516   8.8994 153.9153  1.00272429 14119
SXM-8                   
1 48838U 21049A   25068.54183807 -.00000228  00000+0  00000+0 0  9995
2 48838   0.0195  63.1358 0007231 312.8896 261.3728  1.00318157 13935
TIANLIAN 1-05           
1 49011U 21063A   25069.84766987  .00000091  00000+0  00000+0 0  9992
2 49011   0.3994  79.8786 0003780 232.9007 177.8868  1.00272013 13430
EUTELSAT QUANTUM        
1 49056U 21069B   25069.84211493  .00000108  00000+0  00000+0 0  9993
2 49056   0.0501 297.1243 0002385  42.8923 179.5777  1.00273821 13287
ZHONGXING-2E            
1 49062U 21071A   25069.83086382 -.00000309  00000+0  00000+0 0  9993
2 49062   0.0200  90.0368 0000429 324.8554 150.9836  1.00269593 13390
TJS-7                   
1 49115U 21077A   25069.59414493 -.00000141  00000+0  00000+0 0  9993
2 49115   0.1637  90.6751 0000926 175.3836  16.8093  1.00270471  4910
CHINASAT 9B             
1 49125U 21080A   25069.84826674 -.00000330  00000+0  00000+0 0  9994
2 49125   0.0247 154.4944 0002266 168.8641 252.1893  1.00266718 13002
SES-17                  
1 49332U 21095A   25069.56225060 -.00000289  00000+0  00000+0 0  9994
2 49332   0.0139  92.9036 0001085 245.3763 325.4796  1.00269211 13203
SYRACUSE 4A             
1 49333U 21095B   25069.26575150  .00000117  00000+0  00000+0 0  9999
2 49333   0.0270 149.0487 0001574 198.2266 322.0888  1.00269587 13303
ZHONGXING-1D            
1 49505U 21114A   25069.85400083 -.00000354  00000+0  00000+0 0  9993
2 49505   0.0394 311.2828 0002505 257.6367  37.4121  1.00272296 12183
STPSAT-6                
1 49817U 21118A   25069.59171227 -.00000062  00000+0  00000+0 0  9995
2 49817   0.0217 109.4186 0002447 215.5134 304.8806  1.00269623 11918
EXPRESS AMU-7           
1 50001U 21123A   25069.86155816 -.00000260  00000+0  00000+0 0  9994
2 50001   0.0153 232.2063 0000142  64.0868 327.6132  1.00271502 11895
EXPRESS AMU-3           
1 50002U 21123B   25069.24670591 -.00000339  00000+0  00000+0 0  9996
2 50002   0.0219 232.5319 0000242 350.1158 137.3160  1.00271884  2382
TIANLIAN 2-02           
1 50005U 21124A   25069.79058146 -.00000032  00000+0  00000+0 0  9996
2 50005   0.0263  79.7635 0004012 232.6724 311.8088  1.00272043 11968
TURKSAT 5B              
1 50212U 21126A   25069.86433581  .00000128  00000+0  00000+0 0  9991
2 50212   0.0782 326.5852 0005506   3.4841 191.8336  1.00271629 11658
INMARSAT 6-F1           
1 50319U 21128A   25069.69350233 -.00000189  00000+0  00000+0 0  9992
2 50319   0.0224 159.0963 0000355 178.3625 164.5700  1.00269060 11612
SHIYAN 12 01 (SY-12 01) 
1 50321U 21129A   25069.79975255  .00000072  00000+0  00000+0 0  9994
2 50321   2.4768  86.5775 0004283 268.1016 160.5302  1.00071009 11859
SHIYAN 12 02 (SY-12 02) 
1 50322U 21129B   25069.84809297 -.00000352  00000+0  00000+0 0  9995
2 50322   2.4763  86.5856 0002538   9.4026 118.5363  1.00510575 11859
TJS-9                   
1 50574U 21135A   25069.78397854 -.00000317  00000+0  00000+0 0  9996
2 50574   0.0593 107.7065 0003275  57.0094  63.3995  1.00269373 11781
USA 324                 
1 51280U 22006A   25065.47283977 -.00000090  00000+0  00000+0 0  9999
2 51280   0.3787  84.1655 0000996 342.9429  66.0272  1.00484607  2712
USA 325                 
1 51281U 22006B   25064.88673912  .00000139  00000+0  00000+0 0  9999
2 51281   0.4231  87.4691 0000262 352.1854  74.5958  1.00139091 11433
ZHONGXING-6D            
1 52255U 22038A   25069.18599524 -.00000372  00000+0  00000+0 0  9990
2 52255   0.0283 193.4936 0002015 138.9309  27.5647  1.00271352 10777
CMS-02 (GSAT 24)        
1 52903U 22067A   25069.85878074 -.00000182  00000+0  00000+0 0  9995
2 52903   0.0540 267.9971 0003494  11.1728 281.7410  1.00270355  9961
MEASAT 3D               
1 52904U 22067B   25069.83100271 -.00000259  00000+0  00000+0 0  9996
2 52904   0.0515 324.9540 0003163   7.1080 227.3183  1.00272577 10007
SES-22                  
1 52933U 22071A   25069.65774135  .00000087  00000+0  00000+0 0  9997
2 52933   0.0175 123.3411 0001269 212.2604 290.7234  1.00271148  2875
WFOV (USA 332)          
1 52940U 22073A   25069.88933752 -.00000379  00000+0  00000+0 0  9999
2 52940   2.5168  84.5830 0002102 210.7847 312.8360  1.00269196  9710
